[{"OBJECT_NAME":"STARLINK-6185","OBJECT_ID":"2023-083AB","EPOCH":"2026-03-09T22:00:01.999584","MEAN_MOTION":15.14323415,"ECCENTRICITY":0.00018993,"INCLINATION":43.0006,"RA_OF_ASC_NODE":79.6238,"ARG_OF_PERICENTER":290.3742,"MEAN_ANOMALY":128.6486,"EPHEMERIS_TYPE":0,"CLASSIFICATION_TYPE":"U","NORAD_CAT_ID":56901,"ELEMENT_SET_NO":999,"REV_AT_EPOCH":572,"BSTAR":0.005271535,"MEAN_MOTION_DOT":0.00099461,"MEAN_MOTION_DDOT":0},{"OBJECT_NAME":"LEMUR-2-DEANANDMAEVE","OBJECT_ID":"2025-276N","EPOCH":"2026-03-08T19:03:57.862944","MEAN_MOTION":15.18340037,"ECCENTRICITY":0.00056277,"INCLINATION":97.4282,"RA_OF_ASC_NODE":143.0037,"ARG_OF_PERICENTER":4.7019,"MEAN_ANOMALY":355.4267,"EPHEMERIS_TYPE":0,"CLASSIFICATION_TYPE":"U","NORAD_CAT_ID":66678,"ELEMENT_SET_NO":999,"REV_AT_EPOCH":1517,"BSTAR":0.00054058789,"MEAN_MOTION_DOT":0.00011044,"MEAN_MOTION_DDOT":0}]
